{"type": "FeatureCollection", "features": [ {"type": "Feature", "properties": {"norad_id": 34990, "name": "COSMOS 2251 DEB", "group": "cosmos-2251-debris", "lat": -18.073086461192368, "lon": -140.09151158227027, "alt_km": 748.6190095622906, "timestamp": "2025-12-26T19:22:39.305145+00:00", "meta": {"OBJECT_NAME": "COSMOS 2251 DEB", "OBJECT_ID": "1993-036AFN", "EPOCH": "2025-12-15T10:28:28.781472", "MEAN_MOTION": 14.42382837, "ECCENTRICITY": 0.00165597, "INCLINATION": 74.0457, "RA_OF_ASC_NODE": 246.3361, "ARG_OF_PERICENTER": 308.9911, "MEAN_ANOMALY": 50.977, "EPHEMERIS_TYPE": 0, "CLASSIFICATION_TYPE": "U", "NORAD_CAT_ID": 34990, "ELEMENT_SET_NO": 999, "REV_AT_EPOCH": 87385, "BSTAR": 0.00031884459, "MEAN_MOTION_DOT": 1.029e-05, "MEAN_MOTION_DDOT": 0}, "tle": {"line1": "1 34990U 93036AFN 25349.43644423  .00001029  00000+0  31884-3 0  9997", "line2": "2 34990  74.0457 246.3361 0016559 308.9911  50.9770 14.42382837873857"}}, "geometry": {"type": "Point", "coordinates": [-140.09151158227027, -18.073086461192368]}}, {"type": "Feature", "properties": {"norad_id": 34997, "name": "COSMOS 2251 DEB", "group": "cosmos-2251-debris", "lat": -45.46030815855446, "lon": -92.38168857782344, "alt_km": 705.8900067602472, "timestamp": "2025-12-26T19:22:39.305155+00:00", "meta": {"OBJECT_NAME": "COSMOS 2251 DEB", "OBJECT_ID": "1993-036AFV", "EPOCH": "2025-12-26T11:17:38.796288", "MEAN_MOTION": 14.45709025, "ECCENTRICITY": 0.00969305, "INCLINATION": 73.8802, "RA_OF_ASC_NODE": 285.3428, "ARG_OF_PERICENTER": 258.0413, "MEAN_ANOMALY": 100.9865, "EPHEMERIS_TYPE": 0, "CLASSIFICATION_TYPE": "U", "NORAD_CAT_ID": 34997, "ELEMENT_SET_NO": 999, "REV_AT_EPOCH": 70945, "BSTAR": 0.0014067446, "MEAN_MOTION_DOT": 5.252e-05, "MEAN_MOTION_DDOT": 0}, "tle": {"line1": "1 34997U 93036AFV 25360.47058792  .00005252  00000+0  14067-2 0  9994", "line2": "2 34997  73.8802 285.3428 0096930 258.0413 100.9865 14.45709025709455"}}, "geometry": {"type": "Point", "coordinates": [-92.38168857782344, -45.46030815855446]}}, {"type": "Feature", "properties": {"norad_id": 34998, "name": "COSMOS 2251 DEB", "group": "cosmos-2251-debris", "lat": 15.49865868288413, "lon": 138.11775483335094, "alt_km": 730.5888944702838, "timestamp": "2025-12-26T19:22:39.305182+00:00", "meta": {"OBJECT_NAME": "COSMOS 2251 DEB", "OBJECT_ID": "1993-036AFW", "EPOCH": "2025-12-25T08:38:30.636384", "MEAN_MOTION": 14.49334819, "ECCENTRICITY": 0.0021619, "INCLINATION": 74.0105, "RA_OF_ASC_NODE": 136.2753, "ARG_OF_PERICENTER": 280.2625, "MEAN_ANOMALY": 107.2327, "EPHEMERIS_TYPE": 0, "CLASSIFICATION_TYPE": "U", "NORAD_CAT_ID": 34998, "ELEMENT_SET_NO": 999, "REV_AT_EPOCH": 87603, "BSTAR": 0.0006634, "MEAN_MOTION_DOT": 2.514e-05, "MEAN_MOTION_DDOT": 0}, "tle": {"line1": "1 34998U 93036AFW 25359.36007681  .00002514  00000+0  66340-3 0  9992", "line2": "2 34998  74.0105 136.2753 0021619 280.2625 107.2327 14.49334819876035"}}, "geometry": {"type": "Point", "coordinates": [138.11775483335094, 15.49865868288413]}}, {"type": "Feature", "properties": {"norad_id": 35012, "name": "COSMOS 2251 DEB", "group": "cosmos-2251-debris", "lat": 20.305232150229152, "lon": -100.6047376017149, "alt_km": 713.9520819720747, "timestamp": "2025-12-26T19:22:39.305198+00:00", "meta": {"OBJECT_NAME": "COSMOS 2251 DEB", "OBJECT_ID": "1993-036AFZ", "EPOCH": "2025-12-26T11:59:42.965376", "MEAN_MOTION": 14.45566255, "ECCENTRICITY": 0.0081381, "INCLINATION": 74.021, "RA_OF_ASC_NODE": 86.0552, "ARG_OF_PERICENTER": 223.2847, "MEAN_ANOMALY": 136.19, "EPHEMERIS_TYPE": 0, "CLASSIFICATION_TYPE": "U", "NORAD_CAT_ID": 35012, "ELEMENT_SET_NO": 999, "REV_AT_EPOCH": 87760, "BSTAR": 0.00018470526, "MEAN_MOTION_DOT": 6.5e-06, "MEAN_MOTION_DDOT": 0}, "tle": {"line1": "1 35012U 93036AFZ 25360.49980284  .00000650  00000+0  18471-3 0  9996", "line2": "2 35012  74.0210  86.0552 0081381 223.2847 136.1900 14.45566255877603"}}, "geometry": {"type": "Point", "coordinates": [-100.6047376017149, 20.305232150229152]}}, {"type": "Feature", "properties": {"norad_id": 35014, "name": "COSMOS 2251 DEB", "group": "cosmos-2251-debris", "lat": -26.93416104082, "lon": 7.5884827348616914, "alt_km": 652.5899821073945, "timestamp": "2025-12-26T19:22:39.305208+00:00", "meta": {"OBJECT_NAME": "COSMOS 2251 DEB", "OBJECT_ID": "1993-036AGB", "EPOCH": "2025-12-22T09:43:37.618464", "MEAN_MOTION": 14.75357031, "ECCENTRICITY": 0.00066485, "INCLINATION": 73.9987, "RA_OF_ASC_NODE": 24.596, "ARG_OF_PERICENTER": 203.6446, "MEAN_ANOMALY": 156.4423, "EPHEMERIS_TYPE": 0, "CLASSIFICATION_TYPE": "U", "NORAD_CAT_ID": 35014, "ELEMENT_SET_NO": 999, "REV_AT_EPOCH": 71479, "BSTAR": 0.0015862083, "MEAN_MOTION_DOT": 0.00010749, "MEAN_MOTION_DDOT": 0}, "tle": {"line1": "1 35014U 93036AGB 25356.40529651  .00010749  00000+0  15862-2 0  9991", "line2": "2 35014  73.9987  24.5960 0006648 203.6446 156.4423 14.75357031714792"}}, "geometry": {"type": "Point", "coordinates": [7.5884827348616914, -26.93416104082]}}, {"type": "Feature", "properties": {"norad_id": 35015, "name": "COSMOS 2251 DEB", "group": "cosmos-2251-debris", "lat": 3.0476881819961346, "lon": -150.8230869522943, "alt_km": 719.5197451117374, "timestamp": "2025-12-26T19:22:39.305219+00:00", "meta": {"OBJECT_NAME": "COSMOS 2251 DEB", "OBJECT_ID": "1993-036AGC", "EPOCH": "2025-12-24T20:59:07.900800", "MEAN_MOTION": 14.46938139, "ECCENTRICITY": 0.0074531, "INCLINATION": 73.9465, "RA_OF_ASC_NODE": 211.9291, "ARG_OF_PERICENTER": 77.5315, "MEAN_ANOMALY": 301.6184, "EPHEMERIS_TYPE": 0, "CLASSIFICATION_TYPE": "U", "NORAD_CAT_ID": 35015, "ELEMENT_SET_NO": 999, "REV_AT_EPOCH": 65616, "BSTAR": 0.00073268, "MEAN_MOTION_DOT": 2.728e-05, "MEAN_MOTION_DDOT": 0}, "tle": {"line1": "1 35015U 93036AGC 25358.87439700  .00002728  00000+0  73268-3 0  9993", "line2": "2 35015  73.9465 211.9291 0074531  77.5315 301.6184 14.46938139656168"}}, "geometry": {"type": "Point", "coordinates": [-150.8230869522943, 3.0476881819961346]}}, {"type": "Feature", "properties": {"norad_id": 35016, "name": "COSMOS 2251 DEB", "group": "cosmos-2251-debris", "lat": 32.16317910779393, "lon": 78.02330018710228, "alt_km": 706.347974661262, "timestamp": "2025-12-26T19:22:39.305230+00:00", "meta": {"OBJECT_NAME": "COSMOS 2251 DEB", "OBJECT_ID": "1993-036AGD", "EPOCH": "2025-12-21T05:33:15.838848", "MEAN_MOTION": 14.35075882, "ECCENTRICITY": 0.01140745, "INCLINATION": 73.9302, "RA_OF_ASC_NODE": 278.7521, "ARG_OF_PERICENTER": 193.9283, "MEAN_ANOMALY": 317.5381, "EPHEMERIS_TYPE": 0, "CLASSIFICATION_TYPE": "U", "NORAD_CAT_ID": 35016, "ELEMENT_SET_NO": 999, "REV_AT_EPOCH": 86904, "BSTAR": 0.00026149228, "MEAN_MOTION_DOT": 7.75e-06, "MEAN_MOTION_DDOT": 0}, "tle": {"line1": "1 35016U 93036AGD 25355.23143332  .00000775  00000+0  26149-3 0  9990", "line2": "2 35016  73.9302 278.7521 0114074 193.9283 317.5381 14.35075882869043"}}, "geometry": {"type": "Point", "coordinates": [78.02330018710228, 32.16317910779393]}}, {"type": "Feature", "properties": {"norad_id": 35018, "name": "COSMOS 2251 DEB", "group": "cosmos-2251-debris", "lat": 49.37144034874904, "lon": 106.38488567246064, "alt_km": 866.547470850146, "timestamp": "2025-12-26T19:22:39.305240+00:00", "meta": {"OBJECT_NAME": "COSMOS 2251 DEB", "OBJECT_ID": "1993-036AGF", "EPOCH": "2025-12-24T16:12:38.101536", "MEAN_MOTION": 13.67138502, "ECCENTRICITY": 0.03490652, "INCLINATION": 73.9764, "RA_OF_ASC_NODE": 90.3261, "ARG_OF_PERICENTER": 356.917, "MEAN_ANOMALY": 2.9788, "EPHEMERIS_TYPE": 0, "CLASSIFICATION_TYPE": "U", "NORAD_CAT_ID": 35018, "ELEMENT_SET_NO": 999, "REV_AT_EPOCH": 83349, "BSTAR": 0.00085132295, "MEAN_MOTION_DOT": 1.064e-05, "MEAN_MOTION_DDOT": 0}, "tle": {"line1": "1 35018U 93036AGF 25358.67544099  .00001064  00000+0  85132-3 0  9997", "line2": "2 35018  73.9764  90.3261 0349065 356.9170   2.9788 13.67138502833491"}}, "geometry": {"type": "Point", "coordinates": [106.38488567246064, 49.37144034874904]}}, {"type": "Feature", "properties": {"norad_id": 35020, "name": "COSMOS 2251 DEB", "group": "cosmos-2251-debris", "lat": -24.085071923806016, "lon": -0.6561526995231308, "alt_km": 675.07389849419, "timestamp": "2025-12-26T19:22:39.305250+00:00", "meta": {"OBJECT_NAME": "COSMOS 2251 DEB", "OBJECT_ID": "1993-036AGH", "EPOCH": "2025-12-25T19:27:19.630368", "MEAN_MOTION": 14.62824887, "ECCENTRICITY": 0.00913367, "INCLINATION": 74.0447, "RA_OF_ASC_NODE": 173.9055, "ARG_OF_PERICENTER": 284.996, "MEAN_ANOMALY": 74.111, "EPHEMERIS_TYPE": 0, "CLASSIFICATION_TYPE": "U", "NORAD_CAT_ID": 35020, "ELEMENT_SET_NO": 999, "REV_AT_EPOCH": 88429, "BSTAR": 0.00015615367, "MEAN_MOTION_DOT": 8.12e-06, "MEAN_MOTION_DDOT": 0}, "tle": {"line1": "1 35020U 93036AGH 25359.81064387  .00000812  00000+0  15615-3 0  9993", "line2": "2 35020  74.0447 173.9055 0091336 284.9960  74.1110 14.62824887884293"}}, "geometry": {"type": "Point", "coordinates": [-0.6561526995231308, -24.085071923806016]}}, {"type": "Feature", "properties": {"norad_id": 35022, "name": "COSMOS 2251 DEB", "group": "cosmos-2251-debris", "lat": 19.93535799012428, "lon": 109.06875512994971, "alt_km": 661.1879330433512, "timestamp": "2025-12-26T19:22:39.305261+00:00", "meta": {"OBJECT_NAME": "COSMOS 2251 DEB", "OBJECT_ID": "1993-036AGK", "EPOCH": "2025-12-25T13:04:16.912416", "MEAN_MOTION": 14.60885818, "ECCENTRICITY": 0.0046189, "INCLINATION": 74.0261, "RA_OF_ASC_NODE": 297.4455, "ARG_OF_PERICENTER": 133.747, "MEAN_ANOMALY": 226.7535, "EPHEMERIS_TYPE": 0, "CLASSIFICATION_TYPE": "U", "NORAD_CAT_ID": 35022, "ELEMENT_SET_NO": 999, "REV_AT_EPOCH": 59330, "BSTAR": 0.00049139, "MEAN_MOTION_DOT": 2.411e-05, "MEAN_MOTION_DDOT": 0}, "tle": {"line1": "1 35022U 93036AGK 25359.54464019  .00002411  00000+0  49139-3 0  9996", "line2": "2 35022  74.0261 297.4455 0046189 133.7470 226.7535 14.60885818593302"}}, "geometry": {"type": "Point", "coordinates": [109.06875512994971, 19.93535799012428]}}]}